STARLINK-33961          
1 64047U 25102AB  26083.32464509 -.00689559  00000+0 -65381-1 0  9990
2 64047  70.0023  77.5822 0004563 352.1912   7.9174 14.96266968 48026
STARLINK-11741 [DTC]    
1 64064U 25107A   26083.51486218  .00239362  00000+0  18114-2 0  9990
2 64064  43.0009   9.4120 0001097 260.9315  99.1428 15.70895871 49622
STARLINK-11709 [DTC]    
1 64065U 25107B   26083.49362143  .00182029  00000+0  13870-2 0  9999
2 64065  43.0022   9.2435 0002330 269.0269  91.0332 15.70911080 49620
STARLINK-11737 [DTC]    
1 64066U 25107C   26083.09618889  .00286565  00000+0  21433-2 0  9991
2 64066  42.9974  11.4105 0001832 177.9575 182.1300 15.71031886 49565
STARLINK-11726 [DTC]    
1 64067U 25107D   26083.08556599  .00094260  00000+0  73040-3 0  9991
2 64067  42.9989  11.3264 0001043 264.8113  95.2636 15.70820129 49566
STARLINK-11700 [DTC]    
1 64068U 25107E   26083.50515299  .00225607  00000+0  17069-2 0  9990
2 64068  43.0005   9.3326 0001498 288.4829  71.5876 15.70944185 49623
STARLINK-11649 [DTC]    
1 64069U 25107F   26083.07507487  .00289765  00000+0  21775-2 0  9997
2 64069  43.0003  12.1353 0000494 251.7336 108.3478 15.70908915 49555
STARLINK-11713 [DTC]    
1 64070U 25107G   26083.48832142  .00311070  00000+0  23230-2 0  9996
2 64070  43.0004   9.1955 0002091 359.7184   0.3682 15.70994515 49624
STARLINK-11719 [DTC]    
1 64071U 25107H   26083.50424127  .00222674  00000+0  16872-2 0  9995
2 64071  43.0025   9.3234 0001465 271.5673  88.5027 15.70919134 49623
STARLINK-11733 [DTC]    
1 64072U 25107J   26083.09089203  .00209327  00000+0  15913-2 0  9997
2 64072  43.0003  11.3664 0001220 140.0609 220.0349 15.70881128 49562
STARLINK-11729 [DTC]    
1 64073U 25107K   26083.50956076  .00219519  00000+0  16644-2 0  9991
2 64073  43.0006   9.3658 0000408 156.9547 203.1339 15.70911766 49620
STARLINK-11730 [DTC]    
1 64074U 25107L   26083.49892859  .00199819  00000+0  15184-2 0  9996
2 64074  43.0021   9.2815 0002511 265.2190  94.8391 15.70920787 49623
STARLINK-11723 [DTC]    
1 64075U 25107M   26083.50002314 -.00143457  00000+0 -11295-2 0  9996
2 64075  43.0009   9.0490 0001644 262.9281 193.4753 15.70931160  5928
STARLINK-11715 [DTC]    
1 64076U 25107N   26083.08025874  .00145497  00000+0  11179-2 0  9991
2 64076  43.0007  11.2784 0001612 230.8747 129.1977 15.70833854 49567
STARLINK-34201          
1 64077U 25107P   26083.50929803  .00034600  00000+0  12614-2 0  9992
2 64077  42.9996 118.1366 0000821 279.9884  80.0875 15.27568642 47295
STARLINK-34190          
1 64078U 25107Q   26083.48357833  .00021010  00000+0  77097-3 0  9996
2 64078  43.0029 117.9448 0000671 252.5443 107.5335 15.27574872 48383
