[{"OBJECT_NAME":"STARLINK-33961","OBJECT_ID":"2025-102AB","EPOCH":"2026-03-24T07:47:29.335776","MEAN_MOTION":14.96266968,"ECCENTRICITY":0.0004563,"INCLINATION":70.0023,"RA_OF_ASC_NODE":77.5822,"ARG_OF_PERICENTER":352.1912,"MEAN_ANOMALY":7.9174,"EPHEMERIS_TYPE":0,"CLASSIFICATION_TYPE":"U","NORAD_CAT_ID":64047,"ELEMENT_SET_NO":999,"REV_AT_EPOCH":4802,"BSTAR":-0.065381,"MEAN_MOTION_DOT":-0.00689559,"MEAN_MOTION_DDOT":0},{"OBJECT_NAME":"STARLINK-11741 [DTC]","OBJECT_ID":"2025-107A","EPOCH":"2026-03-24T12:21:24.092352","MEAN_MOTION":15.70895871,"ECCENTRICITY":0.0001097,"INCLINATION":43.0009,"RA_OF_ASC_NODE":9.412,"ARG_OF_PERICENTER":260.9315,"MEAN_ANOMALY":99.1428,"EPHEMERIS_TYPE":0,"CLASSIFICATION_TYPE":"U","NORAD_CAT_ID":64064,"ELEMENT_SET_NO":999,"REV_AT_EPOCH":4962,"BSTAR":0.0018114,"MEAN_MOTION_DOT":0.00239362,"MEAN_MOTION_DDOT":0},{"OBJECT_NAME":"STARLINK-11709 [DTC]","OBJECT_ID":"2025-107B","EPOCH":"2026-03-24T11:50:48.891552","MEAN_MOTION":15.7091108,"ECCENTRICITY":0.000233,"INCLINATION":43.0022,"RA_OF_ASC_NODE":9.2435,"ARG_OF_PERICENTER":269.0269,"MEAN_ANOMALY":91.0332,"EPHEMERIS_TYPE":0,"CLASSIFICATION_TYPE":"U","NORAD_CAT_ID":64065,"ELEMENT_SET_NO":999,"REV_AT_EPOCH":4962,"BSTAR":0.001387,"MEAN_MOTION_DOT":0.00182029,"MEAN_MOTION_DDOT":0},{"OBJECT_NAME":"STARLINK-11737 [DTC]","OBJECT_ID":"2025-107C","EPOCH":"2026-03-24T02:18:30.720096","MEAN_MOTION":15.71031886,"ECCENTRICITY":0.00018321,"INCLINATION":42.9974,"RA_OF_ASC_NODE":11.4105,"ARG_OF_PERICENTER":177.9575,"MEAN_ANOMALY":182.13,"EPHEMERIS_TYPE":0,"CLASSIFICATION_TYPE":"U","NORAD_CAT_ID":64066,"ELEMENT_SET_NO":999,"REV_AT_EPOCH":4956,"BSTAR":0.002143319,"MEAN_MOTION_DOT":0.00286565,"MEAN_MOTION_DDOT":0},{"OBJECT_NAME":"STARLINK-11726 [DTC]","OBJECT_ID":"2025-107D","EPOCH":"2026-03-24T02:03:12.901536","MEAN_MOTION":15.70820129,"ECCENTRICITY":0.0001043,"INCLINATION":42.9989,"RA_OF_ASC_NODE":11.3264,"ARG_OF_PERICENTER":264.8113,"MEAN_ANOMALY":95.2636,"EPHEMERIS_TYPE":0,"CLASSIFICATION_TYPE":"U","NORAD_CAT_ID":64067,"ELEMENT_SET_NO":999,"REV_AT_EPOCH":4956,"BSTAR":0.00073039701,"MEAN_MOTION_DOT":0.0009426,"MEAN_MOTION_DDOT":0},{"OBJECT_NAME":"STARLINK-11700 [DTC]","OBJECT_ID":"2025-107E","EPOCH":"2026-03-24T12:07:25.218336","MEAN_MOTION":15.70944185,"ECCENTRICITY":0.0001498,"INCLINATION":43.0005,"RA_OF_ASC_NODE":9.3326,"ARG_OF_PERICENTER":288.4829,"MEAN_ANOMALY":71.5876,"EPHEMERIS_TYPE":0,"CLASSIFICATION_TYPE":"U","NORAD_CAT_ID":64068,"ELEMENT_SET_NO":999,"REV_AT_EPOCH":4962,"BSTAR":0.0017069,"MEAN_MOTION_DOT":0.00225607,"MEAN_MOTION_DDOT":0},{"OBJECT_NAME":"STARLINK-11649 [DTC]","OBJECT_ID":"2025-107F","EPOCH":"2026-03-24T01:48:06.468768","MEAN_MOTION":15.70908915,"ECCENTRICITY":4.944e-5,"INCLINATION":43.0003,"RA_OF_ASC_NODE":12.1353,"ARG_OF_PERICENTER":251.7336,"MEAN_ANOMALY":108.3478,"EPHEMERIS_TYPE":0,"CLASSIFICATION_TYPE":"U","NORAD_CAT_ID":64069,"ELEMENT_SET_NO":999,"REV_AT_EPOCH":4955,"BSTAR":0.002177492,"MEAN_MOTION_DOT":0.00289765,"MEAN_MOTION_DDOT":0},{"OBJECT_NAME":"STARLINK-11713 [DTC]","OBJECT_ID":"2025-107G","EPOCH":"2026-03-24T11:43:10.970688","MEAN_MOTION":15.70994515,"ECCENTRICITY":0.0002091,"INCLINATION":43.0004,"RA_OF_ASC_NODE":9.1955,"ARG_OF_PERICENTER":359.7184,"MEAN_ANOMALY":0.3682,"EPHEMERIS_TYPE":0,"CLASSIFICATION_TYPE":"U","NORAD_CAT_ID":64070,"ELEMENT_SET_NO":999,"REV_AT_EPOCH":4962,"BSTAR":0.002323,"MEAN_MOTION_DOT":0.0031107,"MEAN_MOTION_DDOT":0},{"OBJECT_NAME":"STARLINK-11719 [DTC]","OBJECT_ID":"2025-107H","EPOCH":"2026-03-24T12:06:06.445728","MEAN_MOTION":15.70919134,"ECCENTRICITY":0.0001465,"INCLINATION":43.0025,"RA_OF_ASC_NODE":9.3234,"ARG_OF_PERICENTER":271.5673,"MEAN_ANOMALY":88.5027,"EPHEMERIS_TYPE":0,"CLASSIFICATION_TYPE":"U","NORAD_CAT_ID":64071,"ELEMENT_SET_NO":999,"REV_AT_EPOCH":4962,"BSTAR":0.0016872,"MEAN_MOTION_DOT":0.00222674,"MEAN_MOTION_DDOT":0},{"OBJECT_NAME":"STARLINK-11733 [DTC]","OBJECT_ID":"2025-107J","EPOCH":"2026-03-24T02:10:53.071392","MEAN_MOTION":15.70881128,"ECCENTRICITY":0.00012201,"INCLINATION":43.0003,"RA_OF_ASC_NODE":11.3664,"ARG_OF_PERICENTER":140.0609,"MEAN_ANOMALY":220.0349,"EPHEMERIS_TYPE":0,"CLASSIFICATION_TYPE":"U","NORAD_CAT_ID":64072,"ELEMENT_SET_NO":999,"REV_AT_EPOCH":4956,"BSTAR":0.0015913396,"MEAN_MOTION_DOT":0.00209327,"MEAN_MOTION_DDOT":0},{"OBJECT_NAME":"STARLINK-11729 [DTC]","OBJECT_ID":"2025-107K","EPOCH":"2026-03-24T12:13:46.049664","MEAN_MOTION":15.70911766,"ECCENTRICITY":4.08e-5,"INCLINATION":43.0006,"RA_OF_ASC_NODE":9.3658,"ARG_OF_PERICENTER":156.9547,"MEAN_ANOMALY":203.1339,"EPHEMERIS_TYPE":0,"CLASSIFICATION_TYPE":"U","NORAD_CAT_ID":64073,"ELEMENT_SET_NO":999,"REV_AT_EPOCH":4962,"BSTAR":0.0016644,"MEAN_MOTION_DOT":0.00219519,"MEAN_MOTION_DDOT":0},{"OBJECT_NAME":"STARLINK-11730 [DTC]","OBJECT_ID":"2025-107L","EPOCH":"2026-03-24T11:58:27.430176","MEAN_MOTION":15.70920787,"ECCENTRICITY":0.0002511,"INCLINATION":43.0021,"RA_OF_ASC_NODE":9.2815,"ARG_OF_PERICENTER":265.219,"MEAN_ANOMALY":94.8391,"EPHEMERIS_TYPE":0,"CLASSIFICATION_TYPE":"U","NORAD_CAT_ID":64074,"ELEMENT_SET_NO":999,"REV_AT_EPOCH":4962,"BSTAR":0.0015184,"MEAN_MOTION_DOT":0.00199819,"MEAN_MOTION_DDOT":0},{"OBJECT_NAME":"STARLINK-11723 [DTC]","OBJECT_ID":"2025-107M","EPOCH":"2026-03-24T12:00:01.999296","MEAN_MOTION":15.7093116,"ECCENTRICITY":0.0001644,"INCLINATION":43.0009,"RA_OF_ASC_NODE":9.049,"ARG_OF_PERICENTER":262.9281,"MEAN_ANOMALY":193.4753,"EPHEMERIS_TYPE":0,"CLASSIFICATION_TYPE":"U","NORAD_CAT_ID":64075,"ELEMENT_SET_NO":999,"REV_AT_EPOCH":592,"BSTAR":-0.0011295,"MEAN_MOTION_DOT":-0.00143457,"MEAN_MOTION_DDOT":0},{"OBJECT_NAME":"STARLINK-11715 [DTC]","OBJECT_ID":"2025-107N","EPOCH":"2026-03-24T01:55:34.355136","MEAN_MOTION":15.70833854,"ECCENTRICITY":0.00016123,"INCLINATION":43.0007,"RA_OF_ASC_NODE":11.2784,"ARG_OF_PERICENTER":230.8747,"MEAN_ANOMALY":129.1977,"EPHEMERIS_TYPE":0,"CLASSIFICATION_TYPE":"U","NORAD_CAT_ID":64076,"ELEMENT_SET_NO":999,"REV_AT_EPOCH":4956,"BSTAR":0.001117928,"MEAN_MOTION_DOT":0.00145497,"MEAN_MOTION_DDOT":0},{"OBJECT_NAME":"STARLINK-34201","OBJECT_ID":"2025-107P","EPOCH":"2026-03-24T12:13:23.349792","MEAN_MOTION":15.27568642,"ECCENTRICITY":8.21e-5,"INCLINATION":42.9996,"RA_OF_ASC_NODE":118.1366,"ARG_OF_PERICENTER":279.9884,"MEAN_ANOMALY":80.0875,"EPHEMERIS_TYPE":0,"CLASSIFICATION_TYPE":"U","NORAD_CAT_ID":64077,"ELEMENT_SET_NO":999,"REV_AT_EPOCH":4729,"BSTAR":0.0012614,"MEAN_MOTION_DOT":0.000346,"MEAN_MOTION_DDOT":0},{"OBJECT_NAME":"STARLINK-34190","OBJECT_ID":"2025-107Q","EPOCH":"2026-03-24T11:36:21.167712","MEAN_MOTION":15.27574872,"ECCENTRICITY":6.71e-5,"INCLINATION":43.0029,"RA_OF_ASC_NODE":117.9448,"ARG_OF_PERICENTER":252.5443,"MEAN_ANOMALY":107.5335,"EPHEMERIS_TYPE":0,"CLASSIFICATION_TYPE":"U","NORAD_CAT_ID":64078,"ELEMENT_SET_NO":999,"REV_AT_EPOCH":4838,"BSTAR":0.00077097,"MEAN_MOTION_DOT":0.0002101,"MEAN_MOTION_DDOT":0}]
